OBJECT_NAME,OBJECT_ID,EPOCH,MEAN_MOTION,ECCENTRICITY,INCLINATION,RA_OF_ASC_NODE,ARG_OF_PERICENTER,MEAN_ANOMALY,EPHEMERIS_TYPE,CLASSIFICATION_TYPE,NORAD_CAT_ID,ELEMENT_SET_NO,REV_AT_EPOCH,BSTAR,MEAN_MOTION_DOT,MEAN_MOTION_DDOT
TIANMU-1 20,2023-208B,2026-07-09T06:11:01.811040,15.33104044,.00058657,97.4456,307.3354,236.3816,123.6867,0,U,58661,999,14080,.1864481E-3,.5885E-4,0
TIANMU-1 21,2023-208C,2026-07-09T06:39:38.761344,15.35479763,.00061507,97.4515,310.1328,227.3131,132.7595,0,U,58662,999,14095,.21747531E-3,.7419E-4,0
TIANMU-1 22,2023-208D,2026-07-09T07:00:04.615776,15.31372714,.00023374,97.4511,306.6284,248.9788,111.1203,0,U,58663,999,14071,.18260071E-3,.5454E-4,0
TIANMU-1 15,2024-004A,2026-07-09T07:33:08.879040,15.26874975,.00057459,97.4673,16.5056,254.1555,105.9050,0,U,58700,999,13915,.15071113E-3,.3905E-4,0
TIANMU-1 16,2024-004B,2026-07-09T07:18:33.094080,15.26977155,.00043184,97.4621,15.7153,273.9802,86.0943,0,U,58701,999,13915,.13974134E-3,.3626E-4,0
TIANMU-1 17,2024-004C,2026-07-09T06:57:38.088288,15.26975622,.0003859,97.4648,16.1939,281.8828,78.1978,0,U,58702,999,13914,.14912428E-3,.3874E-4,0
TIANMU-1 18,2024-004D,2026-07-09T07:57:06.041952,15.26892245,.00034117,97.4666,16.4972,253.5915,106.4949,0,U,58703,999,13915,.146569E-3,.3796E-4,0
INSAT-3DS,2024-033A,2026-07-09T02:33:38.465280,1.00271624,.00011255,0.0132,323.9347,158.0673,285.5291,0,U,58990,999,4728,0,-.142E-5,0
METEOR-M2 4,2024-039A,2026-07-09T06:29:58.224192,14.22431758,.0008198,98.7022,149.2926,103.4843,256.7248,0,U,59051,999,12240,.17442292E-4,-.5E-7,0
GOES 19,2024-119A,2026-07-09T06:27:04.737312,1.00270960,.00004998,0.0099,263.9936,292.5736,112.2180,0,U,60133,999,718,0,-.235E-5,0
MTG-S1,2025-143A,2026-07-09T07:11:38.724864,1.00272613,.00033905,0.5877,343.6536,261.9871,149.0710,0,U,64723,999,364,0,.6E-7,0
METOP-SGA1,2025-172A,2026-07-09T03:02:29.548896,14.19818514,.00074013,98.6632,249.3905,350.6129,9.4908,0,U,65159,999,4690,.24789917E-4,.9E-7,0
FENGYUN 3H,2025-219A,2026-07-09T05:42:33.424704,14.19924249,.00012801,98.6772,130.5787,63.3923,296.7385,0,U,65815,999,4051,.32537506E-4,.26E-6,0
